[{"lat":47.2172918,"lon":-1.5524959,"id":"node/364694509","url":"https://www.facebook.com/AnneCuillere/","amenity":"restaurant","bulk":"yes","name":"La Cuillère en Coin"},{"lat":47.2147524,"lon":-1.5548521,"id":"node/475385271","url":"http://www.chacharestaurant.fr/","amenity":"restaurant","bio":"yes","bulk":"yes","name":"Chacha"},{"lat":47.2148495,"lon":-1.5552388,"id":"node/476294585","bulk":"yes","name":"Jargus"},{"lat":47.1863374,"lon":-1.5274938,"id":"node/669180003","url":"https://www.facebook.com/boulangeriedesevres/","shop":"bakery","bulk":"yes","name":"Boulangerie de Sèvre"},{"lat":47.2102484,"lon":-1.7282223,"id":"node/1034073369","addr":"8 Rue Alcide et Charles d'Orbigny<br />","url":"https://epicerie-leptitpoids.fr/","shop":"convenience","bio":"yes","bulk":"only","name":"Le P'tit Poids"},{"lat":47.2074744,"lon":-1.5572505,"id":"node/1208617740","url":"https://www.facebook.com/absence.nantes","amenity":"bar","bulk":"yes","name":"L'Absence"},{"lat":47.2527611,"lon":-1.5940555,"id":"node/1354149269","url":"https://www.facebook.com/boulangerie.laleczynski/","shop":"bakery","bulk":"yes","name":"Boulangerie Lalczynski"},{"lat":47.2609125,"lon":-1.5167036,"id":"node/1574437644","url":"http://www.chlorophylle-coop.com/","shop":"supermarket","bio":"only","bulk":"yes","name":"Chlorophylle Nantes Beaujoire"},{"lat":47.2269396,"lon":-1.5428944,"id":"node/1619954233","addr":"150 Rue du Général Buat<br />44000 Nantes<br />","shop":"bakery","bulk":"yes","name":"Un grain gourmand"},{"lat":47.2273051,"lon":-1.5426051,"id":"node/1619954291","addr":"144 Rue Général Buat<br />44000 Nantes<br />","url":"https://www.leporcbonheur.fr/","shop":"butcher","bulk":"yes","name":"Le Porc Bonheur"},{"lat":47.2269116,"lon":-1.5426869,"id":"node/1619954323","addr":"101 Rue du Général Buat<br />44000 Nantes<br />","shop":"butcher","bulk":"yes","name":"Loïc Lusson"},{"lat":47.2524065,"lon":-1.4995435,"id":"node/1688797566","addr":"1 Rue du Marché Commun<br />44300 Nantes<br />","url":"https://www.fleuronbio44.com/","shop":"convenience","bio":"only","bulk":"yes","name":"Fleuron Bio"},{"lat":47.2176945,"lon":-1.5552341,"id":"node/1727920548"},{"lat":47.2175592,"lon":-1.5520688,"id":"node/2255955928","url":"http://bionant.net/","shop":"greengrocer","bio":"only","bulk":"yes","name":"bio-Nant'"},{"lat":47.2156747,"lon":-1.5545283,"id":"node/2258874078","url":"http://labrulerienantes.free.fr","shop":"coffee","bulk":"yes","name":"La BrûLeRie"},{"lat":47.2158933,"lon":-1.5549826,"id":"node/2258874081","amenity":"cafe","name":"Taiyaki and Tea"},{"lat":47.2165132,"lon":-1.5550782,"id":"node/2258874082","addr":"5 Rue des Bons Français<br />44000 Nantes<br />","url":"https://www.facebook.com/vacarme.nantes/","amenity":"restaurant","name":"Vacarme"},{"lat":47.2162637,"lon":-1.5553196,"id":"node/2260735425","url":"https://www.maisonfrometon.fr/","shop":"cheese","bulk":"yes","name":"Maison Frometon"},{"lat":47.2170919,"lon":-1.553172,"id":"node/2272012231","url":"https://www.facebook.com/MAMIE-PAT-548789705193887/","amenity":"fast_food","bulk":"yes","name":"Mamie Pât"},{"lat":47.2148493,"lon":-1.5538938,"id":"node/2289128176","addr":"3 Rue du Bouffay<br />44000 Nantes<br />","shop":"butcher","bulk":"yes","name":"Boucherie du Bouffay"},{"lat":47.2151685,"lon":-1.5527066,"id":"node/2320443633","addr":"6 Rue des Échevins<br />44000 Nantes<br />","url":"http://www.lebouffay-spagnol.fr/","shop":"deli","bulk":"yes","name":"Le Bouffay Spanol"},{"lat":47.2162797,"lon":-1.5521914,"id":"node/2393205127","addr":"12 Rue du Château<br />44000 Nantes<br />","url":"https://www.facebook.com/dinettenantes/","amenity":"restaurant","bulk":"yes","name":"Dînette"},{"lat":47.2142717,"lon":-1.5549126,"id":"node/2403889708","url":"https://www.facebook.com/LeBarBleuNantes/","amenity":"cafe","name":"Le bar bleu","drive_through":"no"},{"lat":47.1279578,"lon":-2.1233429,"id":"node/2416353080","addr":"1 Rue du traité de Lisbonne<br />44210 Pornic<br />","url":"https://www.leshameauxbio.fr/magasins/o%C3%B9-sommes-nous/pornic/","shop":"supermarket","bio":"only","bulk":"yes","name":"Les Hameaux Bio Biocoop Pornic"},{"lat":47.2160389,"lon":-1.5530568,"id":"node/2485095784","addr":"12 Place du Pilori<br />44000 Nantes<br />","url":"https://www.facebook.com/LEFSR/","amenity":"fast_food","bulk":"yes","name":"Lulu & Félix"},{"lat":47.206652,"lon":-1.5491605,"id":"node/2583958955","url":"https://ledebutdesharicots.fr/restaurant-bio-local-ile-de-nantes/","amenity":"restaurant","bio":"yes","bulk":"yes","name":"La Grande Barge"},{"lat":47.2174721,"lon":-1.5517781,"id":"node/2607658264","url":"https://lescarmeliteslacremerie.fr/","shop":"cheese","bio":"yes","bulk":"yes","name":"La Crêmerie des Carmélites"},{"lat":47.2173353,"lon":-1.5520038,"id":"node/2607658274","url":"https://www.olibaba.fr/","shop":"deli","bio":"yes","bulk":"yes","name":"Olibaba"},{"lat":47.3726034,"lon":-1.931978,"id":"node/2672093889","addr":"Les Fretauderies<br />44260 Savenay<br />","url":"https://www.lesillonbio.com/","shop":"supermarket","bio":"only","bulk":"yes","name":"Biocoop Le Sillon Bio"},{"lat":47.2122712,"lon":-1.5560079,"id":"node/2759353718","addr":"11 Quai Turenne<br />44000 Nantes<br />","url":"http://www.totumcantine.bio","amenity":"restaurant","bio":"only","bulk":"yes","name":"Totum Cantine Bio"},{"lat":47.2216497,"lon":-1.562362,"id":"node/2844603283","url":"https://www.voyagesduthe.com","shop":"tea","bulk":"yes","name":"Voyages du Thé"},{"lat":47.2166901,"lon":-1.5554971,"id":"node/3094180230","url":"http://www.cafeclavreul.com","shop":"coffee","craft":"coffee_roaster","bulk":"yes","name":"Cafés Clavreul"},{"lat":47.2163659,"lon":-1.5552067,"id":"node/3094180231","url":"http://www.laboiteameuh.fr/","amenity":"ice_cream","bulk":"yes","name":"La Boite à Meuh"},{"lat":47.2041496,"lon":-1.5504689,"id":"node/3097043664","addr":"17 Boulevard Gustave Roch<br />44200 Nantes<br />","url":"https://www.biocoop.fr/magasins-bio/Trouver-mon-magasin-Biocoop/Pays-de-la-Loire/Loire-Atlantique/BIOCOOP-NANTES-REPUBLIQUE","shop":"supermarket","bio":"only","bulk":"yes","name":"Biocoop"},{"lat":47.2126735,"lon":-1.5593007,"id":"node/3125795830","addr":"7 Place de la Bourse<br />44000 Nantes<br />","url":"https://youbiofoodrink.fr","amenity":"cafe","bio":"yes","bulk":"yes","name":"You!"},{"lat":47.1794276,"lon":-1.6236473,"id":"node/3305544579","addr":"3 Place de l'Église<br />","url":"https://www.facebook.com/LESOUT.Bouguenais/","shop":"bakery","bulk":"yes","name":"Boulangerie Pâtisserie Nicolas Lesout"},{"lat":47.2219779,"lon":-1.559607,"id":"node/3448218023","addr":"2 Rue Yves Bodiguel<br />","url":"https://lesjolisbocaux.com/","shop":"convenience","bio":"yes","bulk":"only","name":"Les Jolis Bocaux"},{"lat":47.2395925,"lon":-1.5135479,"id":"node/3470086335","addr":"211 Route de Sainte-Luce<br />44300 Nantes<br />","shop":"bakery","bulk":"yes","name":"La boule carrée"},{"lat":47.2281879,"lon":-1.5417474,"id":"node/3474743920","addr":"122 Rue Général Buat<br />44000 Nantes<br />","shop":"dairy","bulk":"yes","name":"Crèmerie Saint-Do"},{"lat":47.2280444,"lon":-1.541901,"id":"node/3474835769","addr":"128 Rue Général Buat<br />44000 Nantes<br />","shop":"chocolate","bulk":"yes","name":"Couleur Chocolat"},{"lat":47.2279906,"lon":-1.5419386,"id":"node/3474835770","addr":"130 Rue Général Buat<br />44000 Nantes<br />","shop":"greengrocer","bulk":"yes","name":"Le Verger de Saint-Do"},{"lat":47.204173,"lon":-1.5671559,"id":"node/3571306993","url":"https://fr-fr.facebook.com/pages/La-Boule-Carr%C3%A9e/543123109040038","shop":"bakery","bulk":"yes","name":"La Boule Carrée"},{"lat":47.2012022,"lon":-1.5455596,"id":"node/3611085431","shop":"butcher","craft":"caterer","bulk":"yes","name":"Le Douget"},{"lat":47.2119489,"lon":-1.5462896,"id":"node/3683626198","url":"https://www.papill.fr","amenity":"restaurant","craft":"caterer","bulk":"yes","name":"Papill'"},{"lat":47.2167531,"lon":-1.5553276,"id":"node/3874479888","url":"https://www.facebook.com/Les-Bottes-Boucherie-Paysanne-311067539588459/","shop":"butcher","bulk":"yes","name":"Les Bottes"},{"lat":47.2211715,"lon":-1.5578118,"id":"node/4199637816","shop":"seafood","bulk":"yes","name":"Talensac Marée"},{"lat":47.2212319,"lon":-1.557823,"id":"node/4199637822","shop":"cheese","bulk":"yes","name":"Établissements Marchand"},{"lat":47.2211696,"lon":-1.5580037,"id":"node/4201236594","shop":"butcher","bio":"yes","bulk":"yes","name":"Boucherie Biologique Nantaise"},{"lat":47.2212657,"lon":-1.5579465,"id":"node/4201236601","url":"http://www.beillevaire.com","shop":"cheese","bulk":"yes","name":"Fromagerie Beillevaire"},{"lat":47.2212685,"lon":-1.5582387,"id":"node/4201236610","url":"http://www.carol-fils.com","shop":"deli","bulk":"yes","name":"Les Délices de Provence"},{"lat":47.2060521,"lon":-1.5051122,"id":"node/4228670107","addr":"3 Rue Jean Macé<br />44230 Saint-Sébastien-sur-Loire<br />","url":"https://www.facebook.com/epiceriemoscati/","shop":"deli","bulk":"yes","name":"Moscati"},{"lat":47.3244071,"lon":-2.4109019,"id":"node/4267907899","addr":"Rue de la Briquerie<br />44350 Guérande<br />","url":"https://www.leshameauxbio.fr/nos-magasins/gu%C3%A9rande/","shop":"supermarket","bio":"only","bulk":"yes","name":"Les Hameaux Bio Biocoop Guérande"},{"lat":47.2153085,"lon":-1.558263,"id":"node/4350892131","url":"http://sugarbluecafe.fr","amenity":"cafe","bulk":"yes","name":"Sugar Blue"},{"lat":47.2580051,"lon":-1.513235,"id":"node/4367931757","url":"https://www.facebook.com/CarrefourNantesBeaujoire/","shop":"supermarket","name":"Carrefour"},{"lat":47.2151934,"lon":-1.5532121,"id":"node/4394780789","addr":"6 Rue de la Bâclerie<br />44000 Nantes<br />","url":"http://www.sophiebakery.fr","shop":"pastry","name":"Sophie Backery"},{"lat":47.2337591,"lon":-1.585937,"id":"node/4416898146","addr":"34 Rue des Plantes<br />44800 Saint-Herblain<br />","url":"http://www.chlorophylle-coop.com/","shop":"supermarket","bio":"only","bulk":"yes","name":"Chlorophylle Saint-Herblain Beauséjour"},{"lat":47.1919208,"lon":-1.5824362,"id":"node/4416911931","addr":"18 Rue Ordronneau<br />44400 Rezé<br />","url":"http://www.chlorophylle-coop.com/","shop":"supermarket","bio":"only","bulk":"yes","name":"Chlorophylle Rezé ATOUT SUD"},{"lat":47.2650699,"lon":-1.4874542,"id":"node/4750862439","addr":"13 Rue Denis Papin<br />44980 Sainte-Luce-sur-Loire<br />","url":"http://legrenierapain.com/magasins-province/#st-luce","shop":"bakery","bulk":"yes","name":"Le grenier à pain"},{"lat":47.2650899,"lon":-1.4876903,"id":"node/4750862440","addr":"13 Rue Denis Papin<br />44980 Sainte-Luce-sur-Loire<br />","url":"http://www.chlorophylle-coop.com","shop":"supermarket","bio":"only","bulk":"yes","name":"Chlorophylle Sainte-Luce-sur-Loire"},{"lat":47.2143239,"lon":-1.5634091,"id":"node/4829754273","url":"https://www.brisontraiteur.com/","craft":"caterer","bulk":"yes","name":"Brison"},{"lat":47.2207118,"lon":-1.5486393,"id":"node/4917847921","addr":"66 Rue Maréchal Joffre<br />44000 Nantes<br />","name":"Bed & school"},{"lat":47.2590439,"lon":-1.5011231,"id":"node/5053854903","addr":"19 Rue du Marché Commun<br />44300 Nantes<br />","url":"https://www.leshameauxbio.fr/magasins/o%C3%B9-sommes-nous/nantes/","shop":"supermarket","bio":"only","bulk":"yes","name":"Les Hameaux Bio Biocoop Nantes"},{"lat":47.2112211,"lon":-1.6529343,"id":"node/5066198364","addr":"13 Place de la Paix<br />44800 Saint-Herblain<br />","shop":"butcher","bulk":"yes","name":"Boucheries 44"},{"lat":47.2066975,"lon":-1.5491908,"id":"node/5164862621","url":"https://www.facebook.com/SaladIle-874591492661849","amenity":"restaurant","bulk":"yes","name":"Salad'île"},{"lat":47.2197084,"lon":-1.5596311,"id":"node/5165100105","url":"https://www.lemondedansunbol.fr","amenity":"restaurant","bulk":"yes","name":"Le monde dans un bol"},{"lat":47.2286209,"lon":-1.634275,"id":"node/5226961589","addr":"279 Boulevard Marcel Paul<br />44800 Saint-Herblain<br />","url":"http://www.chlorophylle-coop.com/","shop":"supermarket","bio":"only","bulk":"yes","name":"Chlorophylle Saint-Herblain Atlantis"},{"lat":47.2167671,"lon":-1.5592915,"id":"node/5277827989","addr":"3 Rue Pierre Chéreau<br />44000 Nantes<br />","url":"http://daybyday-shop.com/magasin/nantes","shop":"convenience","bio":"yes","bulk":"only","name":"Épicerie Day by Day"},{"lat":47.257489,"lon":-2.3166586,"id":"node/5333494928","addr":"4 Avenue du Courtil Riel<br />44380 Pornichet<br />","url":"https://www.leshameauxbio.fr/magasins/o%C3%B9-sommes-nous/pornichet/","shop":"supermarket","bio":"only","bulk":"yes","name":"Les Hameaux Bio Biocoop Pornichet"},{"lat":47.2526006,"lon":-1.5945964,"id":"node/5403811880","shop":"butcher","bulk":"yes","name":"La Boucherie"},{"lat":47.2285765,"lon":-1.5413056,"id":"node/5456625523","addr":"118 Rue Général Buat<br />44000 Nantes<br />","amenity":"fast_food","bulk":"yes","name":"Oudaîa"},{"lat":47.2285392,"lon":-1.5413402,"id":"node/5456638652","addr":"118 Rue Général Buat<br />44000 Nantes<br />","shop":"bakery","bulk":"yes","name":"Boulangerie Rullier Patrice"},{"lat":47.214257,"lon":-1.5653501,"id":"node/5459152854","addr":"21 Rue Racine<br />44000 Nantes<br />","shop":"convenience","bio":"only","bulk":"yes","name":"Du Vert en Ville"},{"lat":47.219612,"lon":-1.5341746,"id":"node/5460145598","addr":"7 Boulevard de Stalingrad<br />44000 Nantes<br />","url":"http://domoro.fr/","amenity":"restaurant","bulk":"yes","name":"Domoro"},{"lat":47.2152678,"lon":-1.5582594,"id":"node/5460210375","addr":"4 Rue de l'Arche Sèche<br />44000 Nantes<br />","url":"https://ilovetheine.fr","shop":"tea","bulk":"yes","name":"Théine"},{"lat":47.2163504,"lon":-1.5587986,"id":"node/5460303725","addr":"6 Rue Guépin<br />44000 Nantes<br />","shop":"coffee","bulk":"yes","name":"Le Comptoir NanTHE du CAFE"},{"lat":47.2135346,"lon":-1.5628676,"id":"node/5460362739","addr":"2 Rue Franklin<br />44000 Nantes<br />","shop":"tea","bulk":"yes","name":"ThéÔphil"},{"lat":47.2119373,"lon":-1.6529673,"id":"node/5460375747","addr":"24 Rue Pierre Blard<br />44800 Saint-Herblain<br />","shop":"bakery","bulk":"yes","name":"L'Épi d'Ange"},{"lat":47.2113045,"lon":-1.6533486,"id":"node/5460383333","addr":"21 Place de la Paix<br />44800 Saint-Herblain<br />","shop":"seafood","bulk":"yes","name":"Poissonnerie des Arcades"},{"lat":47.1992687,"lon":-1.6709108,"id":"node/5460390736","addr":"1 Rue Albert Thomas<br />44610 Indre<br />","amenity":"restaurant","bulk":"yes","name":"Le Ver Luisant"},{"lat":47.2145564,"lon":-1.5551554,"id":"node/5460433357","url":"https://www.facebook.com/treat.nantes/"},{"lat":47.219844,"lon":-1.5562527,"id":"node/5460439635","addr":"15 Allée des Tanneurs<br />44000 Nantes<br />","amenity":"restaurant","bulk":"yes","name":"Mon Bento"},{"lat":47.2195343,"lon":-1.5566985,"id":"node/5460452139","addr":"12 Allée des Tanneurs<br />44000 Nantes<br />","amenity":"fast_food","bulk":"yes","name":"Restaurant VF"},{"lat":47.3594699,"lon":-2.1861568,"id":"node/5460462886","addr":"3 Rue Laënnec<br />44720 Saint-Malo-de-Guersac<br />","url":"https://www.facebook.com/Les-potes-au-Roz-La-LocoMotive-1166445600147694/","shop":"convenience","bulk":"yes","name":"La LocoMotive"},{"lat":47.2227312,"lon":-1.7090994,"id":"node/5460468439","addr":"L'Angle<br />44220 Couëron<br />","shop":"farm","bulk":"yes","name":"Ferme des Oeufs au Lait"},{"lat":47.222398,"lon":-1.7135231,"id":"node/5518872681","addr":"Chemin du Chef de l'Eau<br />44220 Couëron<br />","shop":"farm","name":"Ferme des Roches"},{"lat":47.2070624,"lon":-1.5551702,"id":"node/5528055528","url":"https://www.facebook.com/petitbcafelibrairie/","amenity":"cafe","bulk":"yes","name":"petit b."},{"lat":47.6555052,"lon":-2.7580327,"id":"node/5586113008","addr":"5 Place du Poids-Public<br />56000 Vannes<br />","url":"https://leverredoseur.fr/","shop":"convenience","bio":"yes","bulk":"only","name":"Le Verre Doseur"},{"lat":47.2064357,"lon":-1.5547156,"id":"node/5655365444","url":"http://atable-naturellement.fr","amenity":"restaurant","bio":"only","bulk":"yes","name":"À table naturellement"},{"lat":47.2810384,"lon":-2.2149858,"id":"node/5659509071","url":"http://www.terroirs44.org/les-halles-paysannes/","shop":"farm","bulk":"yes","name":"Les Halles Paysannes"},{"lat":47.1846442,"lon":-1.5469085,"id":"node/5659525443","url":"https://www.facebook.com/La-Fromagerie-SAINT-PAUL-442537955887586/","shop":"cheese","bulk":"yes","name":"La Fromagerie Saint Paul"},{"lat":47.2507966,"lon":-1.4834407,"id":"node/5764223180","shop":"tea","bulk":"yes","name":"Co'Thé Gourmand"},{"lat":47.2139971,"lon":-1.5529087,"id":"node/5769027832","url":"http://www.boulangerie-borea.com/","shop":"bakery","bulk":"yes","name":"Borea"},{"lat":47.2167623,"lon":-1.5596422,"id":"node/5851060201","url":"https://www.biocoop.fr/","shop":"supermarket","bio":"only","bulk":"yes","name":"Biocoop Place Bretagne"},{"lat":47.2156348,"lon":-1.5553602,"id":"node/5884678702","addr":"7 Rue des Halles<br />","url":"https://www.facebook.com/combicafe.nantes/","amenity":"cafe","bulk":"yes","name":"Combi"},{"lat":47.0870267,"lon":-1.2828517,"id":"node/5959789630","addr":"14 Venelle de l'Escarpe<br />44190 Clisson<br />","url":"https://www.casavrac.fr/","shop":"convenience","bio":"yes","bulk":"only","name":"CasaVrac"},{"lat":47.470517,"lon":-1.4918318,"id":"node/6005834446","shop":"farm","bulk":"yes","name":"Ferme de l'Arcade"},{"lat":47.2283798,"lon":-1.5325506,"id":"node/6015554486","shop":"bakery","bulk":"yes","name":"Aux Délices d'Ambre"},{"lat":47.2171611,"lon":-1.5599198,"id":"node/6017751256","url":"https://www.facebook.com/esthete.nantes/","shop":"pastry","bulk":"yes","name":"Esthète"},{"lat":47.2144572,"lon":-1.5632425,"id":"node/6023751304","addr":"14 Rue Franklin<br />","url":"https://lesout.wixsite.com/lesout","shop":"bakery","bulk":"yes","name":"Lesout"},{"lat":47.2048074,"lon":-1.5678523,"id":"node/6026797392","url":"https://www.facebook.com/dosedesens/","shop":"convenience","bio":"only","bulk":"only","name":"Dose de Sens"},{"lat":47.2134759,"lon":-1.5632783,"id":"node/6040578114","url":"https://mangi.business.site","shop":"deli","amenity":"restaurant","bulk":"yes","name":"Manĝi"},{"lat":47.2190497,"lon":-1.5550578,"id":"node/6088358201","url":"https://greenaddict.bio","amenity":"restaurant","bio":"yes","bulk":"yes","name":"Green addict"},{"lat":47.4757354,"lon":-1.7630334,"id":"node/6094770462","addr":"7 Rue de Nantes<br />","url":"https://www.facebook.com/O-Mille-Caprices-338041810299865/","shop":"bakery","bulk":"yes","name":"O Mille Caprices"},{"lat":47.211579,"lon":-1.6515906,"id":"node/6133353987","addr":"7 Rue Pierre Blard<br />44800 Saint-Herblain<br />","url":"https://www.facebook.com/lecellierdheleneepicerievrac/","shop":"convenience","bio":"yes","bulk":"only","name":"Le Cellier d'Hélène"},{"lat":47.2149709,"lon":-1.5645059,"id":"node/6237965656","addr":"4 Rue Copernic<br />","url":"https://gouttedornantes.fr","amenity":"cafe","bio":"yes","bulk":"yes","name":"Goutte d'Or"},{"lat":47.2131924,"lon":-1.5537363,"id":"node/6285198282","url":"https://www.kinfolk.fr/","amenity":"cafe","bulk":"yes","name":"Kinfolk"},{"lat":47.2150056,"lon":-1.5642915,"id":"node/6346508275","addr":"2 Rue Copernic<br />","url":"https://www.opson.fr","shop":"convenience","bulk":"yes","name":"Opson"},{"lat":47.2131654,"lon":-1.5455703,"id":"node/6366938124","url":"https://melbournecoffee.fr","amenity":"cafe","bulk":"yes","name":"Melbourne Coffee"},{"lat":47.249728,"lon":-1.4872276,"id":"node/6413396109","addr":"2 Rue du Maréchal de Lattre de Tassigny<br />","url":"https://www.facebook.com/mesboucheesdouces/","craft":"caterer","bulk":"yes","name":"Bouchées Douces"},{"lat":47.2142784,"lon":-1.5478123,"id":"node/6415201298","addr":"10 Rue Crucy<br />","url":"https://www.facebook.com/La-Cuill%C3%A8re-en-Coin-rue-Crucy-2011946099019304/","amenity":"restaurant","bulk":"yes","name":"La Cuillère en Coin"},{"lat":47.2001689,"lon":-1.5891099,"id":"node/6416702272","addr":"40 place Jean Macé<br />44100 Nantes<br />","url":"http://chezlavoisine.bio/","shop":"convenience","bio":"yes","bulk":"only","name":"Chez la Voisine"},{"lat":47.2174654,"lon":-1.5562355,"id":"node/6432379017","url":"https://www.ethiquete.fr/","amenity":"restaurant","bulk":"yes","name":"L’Éthiquête"},{"lat":47.21604,"lon":-1.4650317,"id":"node/6463616007","addr":"10 Rue Pasteur<br />","url":"https://www.facebook.com/Les-Gourmandises-de-Goulaine-812482498932257/","shop":"deli","bulk":"yes","name":"Les Gourmandises de Goulaine"},{"lat":47.1042184,"lon":-1.7965855,"id":"node/6463762132","addr":"10 Rue des Frênes<br />44680 Sainte Pazanne<br />","url":"https://www.biomonde.fr/bio-zitive,3,311","shop":"supermarket","bio":"only","bulk":"yes","name":"Bio'Zitive"},{"lat":47.249747,"lon":-1.4873051,"id":"node/6556837598","addr":"2 Rue du Maréchal de Lattre de Tassigny<br />","url":"https://www.facebook.com/Boucherie-Esnault-Lelou-506018089907303/","shop":"butcher","bulk":"yes","name":"Boucherie Esnault Lelou"},{"lat":47.2228873,"lon":-1.5458052,"id":"node/6685077189","shop":"convenience","bulk":"yes","name":"Miam"},{"lat":47.2069138,"lon":-1.5632728,"id":"node/6780870872","shop":"bakery","bulk":"yes","name":"La maison"},{"lat":47.3833918,"lon":-2.2010103,"id":"node/6868203947","addr":"104 Rue Joliot Curie<br />44720 Saint-Joachim<br />","url":"https://www.facebook.com/nathaliebostffocher/","shop":"butcher","bulk":"yes","name":"Boucherie La Renommée"},{"lat":47.1873927,"lon":-1.4621323,"id":"way/73488024","addr":"5 Rue de l'Atlantique<br />","url":"http://www.chlorophylle-coop.com/","shop":"supermarket","bio":"only","bulk":"yes","name":"Chlorophylle Basse-Goulaine POLE SUD"},{"lat":47.3603276,"lon":-1.9439195,"id":"way/224599086","addr":"16 Rue de l'Église<br />44260 Savenay<br />"}]