{
  "version": 0.6,
  "generator": "Overpass API 0.7.55.7 8b86ff77",
  "osm3s": {
    "timestamp_osm_base": "2019-09-12T09:55:01Z",
    "copyright": "The data included in this document is from www.openstreetmap.org. The data is made available under ODbL."
  },
  "elements": [

{
  "type": "node",
  "id": 631628034,
  "lat": 45.8353121,
  "lon": -0.6783881,
  "tags": {
    "addr:city": "Port-d'Envaux",
    "addr:housenumber": "3",
    "addr:postcode": "17350",
    "addr:street": "Rue du Port",
    "description": "Commerçant acceptant les contenants réutilisables. ",
    "name": "Boulangerie Barodon",
    "shop": "bakery",
    "source": "cadastre-dgi-fr source : Direction Générale des Impôts - Cadastre;mise à jour : 2010"
  }
},
{
  "type": "node",
  "id": 1874273505,
  "lat": 46.2439857,
  "lon": -0.8071055,
  "tags": {
    "addr:city": "Courçon",
    "addr:housenumber": "2 Bis",
    "addr:postcode": "17170",
    "addr:street": "Rue du Bussin",
    "description": "Commerce acceptant les contenants réutilisables. ",
    "name": "Boulangerie SARL Goichon",
    "shop": "bakery"
  }
},
{
  "type": "node",
  "id": 2503170551,
  "lat": 45.9437618,
  "lon": -0.5209145,
  "tags": {
    "addr:city": "Saint-Jean-d'Angély",
    "addr:housenumber": "11",
    "addr:postcode": "17400",
    "addr:street": "Rue Grosse Horloge",
    "description": "Commerce acceptant les contenants réutilisables. ",
    "name": "Bio Saint Jean",
    "shop": "convenience",
    "source": "cadastre-dgi-fr source : Direction Générale des Impôts - Cadastre. Mise à jour : 2013"
  }
},
{
  "type": "node",
  "id": 2964997063,
  "lat": 45.9441847,
  "lon": -0.5193530,
  "tags": {
    "addr:city": "Saint-Jean-d'Angély",
    "addr:housenumber": "28",
    "addr:postcode": "17400",
    "addr:street": "Rue de l'Hôtel de Ville",
    "description": "Commerce acceptant les contenants réutilisables. ",
    "name": "Albert Bruno",
    "shop": "butcher"
  }
},
{
  "type": "node",
  "id": 4282340895,
  "lat": 46.1074144,
  "lon": -0.7513793,
  "tags": {
    "addr:city": "Surgères",
    "addr:housenumber": "86",
    "addr:postcode": "17700",
    "addr:street": "Rue Audry de Puyravault",
    "name": "Joyet",
    "shop": "butcher",
    "website": "http://joyet-traiteur.com/artisan-boucher-charcutier-surgeres-charente-maritime.aspx"
  }
},
{
  "type": "node",
  "id": 4959779531,
  "lat": 46.1063101,
  "lon": -0.7518011,
  "tags": {
    "addr:city": "Surgères",
    "addr:housenumber": "26",
    "addr:postcode": "17700",
    "addr:street": "Place de l'Europe",
    "name": "Mathé",
    "shop": "bakery"
  }
},
{
  "type": "node",
  "id": 5594452333,
  "lat": 49.6425588,
  "lon": -1.6262971,
  "tags": {
    "addr:city": "Cherbourg",
    "addr:housenumber": "19",
    "addr:postcode": "50100",
    "addr:street": "Rue de la Paix",
    "bulk_purchase": "only",
    "facebook": "https://www.facebook.com/laconsigne.epicerie.durable/",
    "name": "La Consigne",
    "organic": "yes",
    "shop": "convenience"
  }
},
{
  "type": "node",
  "id": 5735767337,
  "lat": 46.1070433,
  "lon": -0.7513112,
  "tags": {
    "addr:city": "Surgères",
    "addr:housenumber": "2",
    "addr:postcode": "17700",
    "addr:street": "Rue Bersot",
    "contact:facebook": "https://www.facebook.com/Charcuterie-Jugel%C3%A9-898575950257843/",
    "name": "Charcuterie Jugelé",
    "opening_hours": "Tu-Sa 07:30-12:45, 15:00-19:00; Su 07:30-12:45",
    "phone": "+33 5 46 07 01 01",
    "shop": "butcher"
  }
},
{
  "type": "node",
  "id": 6391113867,
  "lat": 46.1068424,
  "lon": -0.7514325,
  "tags": {
    "addr:city": "Surgères",
    "addr:housenumber": "10",
    "addr:postcode": "17700",
    "addr:street": "Rue Bersot",
    "name": "Pâtisserie Alain Pidoux",
    "opening_hours": "Tu-Sa 08:00-13:00,15:00-19:30; Su 08:00-13:00",
    "payment:cash": "yes",
    "phone": "+33 5 46 07 01 59 ",
    "shop": "pastry",
    "website": "http://www.fred-dubois.info/commercants_surgeres/page_com/pidoux.htm"
  }
},
{
  "type": "node",
  "id": 6396154439,
  "lat": 46.1035395,
  "lon": -0.7534799,
  "tags": {
    "addr:city": "Surgères",
    "addr:housenumber": "14",
    "addr:postcode": "17700",
    "addr:street": "Avenue Saint-Pierre",
    "contact:facebook": "https://www.facebook.com/patisseriebrissonromainetlaetitia/",
    "name": "Brisson",
    "opening_hours": "Mo-We, Fr-Su 06:00-20:30",
    "shop": "bakery"
  }
},
{
  "type": "node",
  "id": 6396162738,
  "lat": 46.1158235,
  "lon": -0.9347376,
  "tags": {
    "addr:city": "Aigrefeuille-d'Aunis",
    "addr:housenumber": "5",
    "addr:postcode": "17290",
    "addr:street": "Rue de l'Aunis",
    "contact:facebook": "https://www.facebook.com/patisseriebrissonromainetlaetitia/",
    "name": "Brisson",
    "shop": "bakery"
  }
},
{
  "type": "node",
  "id": 6397851431,
  "lat": 46.0990501,
  "lon": -0.9410009,
  "tags": {
    "addr:city": "Le Thou",
    "addr:housenumber": "3",
    "addr:postcode": "17290",
    "addr:street": "Rue du Petit Bois",
    "name": "Méli Mélo",
    "shop": "cheese"
  }
},
{
  "type": "node",
  "id": 6397851432,
  "lat": 46.0991520,
  "lon": -0.9407227,
  "tags": {
    "addr:city": "Le Thou",
    "addr:housenumber": "3",
    "addr:postcode": "17290",
    "addr:street": "Rue du Petit Bois",
    "bulk_purchase": "yes",
    "name": "Belle à croquer",
    "shop": "convenience"
  }
},
{
  "type": "node",
  "id": 6398093703,
  "lat": 46.1091932,
  "lon": -0.7555488,
  "tags": {
    "addr:city": "Surgères",
    "addr:housenumber": "28",
    "addr:postcode": "17700",
    "addr:street": "Rue Audry de Puyravault",
    "description": "Commerce acceptant les contenants réutilisables. ",
    "name": "Le Palais des Gourmandises",
    "shop": "bakery"
  }
},
{
  "type": "node",
  "id": 6408521719,
  "lat": 46.1080993,
  "lon": -0.7834382,
  "tags": {
    "addr:street": "Rue Bernadette Goriou",
    "description": "Marché de producteurs Charcuterie - Boucherie - Fruits et légumes - Epicerie fine. \nCommerce acceptant les contenants réutilisables. \nOuvert toute l’année.\nHoraires :\nJeudi 14h à 19h\nVendredi 9h à 19h\nSamedi 9h à 12h30",
    "name": "A la Ferme d'Aunis",
    "opening_hours": "Th 14:00-19:00; Fr 09:00-19:00; Sa 09:00-12:30",
    "payment:cash": "yes",
    "payment:credit_cards": "yes",
    "phone": "+33 5 46 28 21 99",
    "shop": "farm"
  }
},
{
  "type": "node",
  "id": 6408618341,
  "lat": 46.1167290,
  "lon": -0.9333349,
  "tags": {
    "addr:city": "Aigrefeuille-d'Aunis",
    "addr:housenumber": "22",
    "addr:postcode": "17290",
    "addr:street": "Place de la République",
    "description": "Commerce acceptant les contenants réutilisables. ",
    "name": "Sabrina et Emmanuel DUBOUÉ",
    "shop": "bakery"
  }
},
{
  "type": "node",
  "id": 6487719633,
  "lat": 46.1251018,
  "lon": -0.6348614,
  "tags": {
    "addr:city": "Boisse, MARSAIS",
    "addr:housenumber": "2",
    "addr:postcode": "17700",
    "addr:street": "Route du Stade",
    "description": "Commerce acceptant les contenants réutilisables (sacs à pain). ",
    "name": "Boulangerie les Délices",
    "operator": "SARL les 4 B",
    "shop": "bakery"
  }
},
{
  "type": "node",
  "id": 6513228093,
  "lat": 46.0553057,
  "lon": -0.7648765,
  "tags": {
    "addr:city": "La Devise",
    "addr:housenumber": "20 bis",
    "addr:postcode": "17700",
    "addr:street": "Rue Charles Henri Percheron",
    "description": "Commerce acceptant les contenants réutilisables. ",
    "name": "Epicerie Service Vandré",
    "shop": "convenience"
  }
},
{
  "type": "node",
  "id": 6513232222,
  "lat": 46.1492750,
  "lon": -0.8003172,
  "tags": {
    "addr:city": "Vouhé",
    "addr:housenumber": "1",
    "addr:postcode": "17700",
    "addr:street": "Rue du Moulin Godard",
    "description": "Commerce acceptant les contenants réutilisables. ",
    "name": "Blanchard Sébastien",
    "shop": "bakery"
  }
},
{
  "type": "node",
  "id": 6513260714,
  "lat": 46.0850027,
  "lon": -0.9236615,
  "tags": {
    "addr:city": "Le Thou",
    "addr:housenumber": "1 A",
    "addr:postcode": "17290",
    "addr:street": "Allée du Foirail",
    "description": "Commerce acceptant les contenants réutilisables. ",
    "name": "Boulangerie - Pâtisserie L.Gaudin",
    "shop": "bakery"
  }
},
{
  "type": "node",
  "id": 6513278938,
  "lat": 46.0849540,
  "lon": -0.9239738,
  "tags": {
    "addr:city": "Le Thou",
    "addr:postcode": "17290",
    "addr:street": "Rue du Château de Cigogne",
    "description": "Commerce acceptant les contenants réutilisables. ",
    "name": "Vival du Thou o tout",
    "shop": "convenience"
  }
},
{
  "type": "node",
  "id": 6513346250,
  "lat": 46.1074623,
  "lon": -0.7509067,
  "tags": {
    "addr:city": "Surgères",
    "addr:postcode": "17700",
    "addr:street": "Allée du Marché",
    "description": "Boucherie - Charcuterie - Traiteur. Commerce acceptant les contenants réutilisables. ",
    "name": "Sibileau",
    "operator": "Marché couvert",
    "shop": "butcher"
  }
},
{
  "type": "node",
  "id": 6513346251,
  "lat": 46.1074642,
  "lon": -0.7508692,
  "tags": {
    "addr:city": "Surgères",
    "addr:postcode": "17700",
    "addr:street": "Allée du Marché",
    "description": "Commerce acceptant les contenants réutilisables. ",
    "name": "Poissonnerie Neraudeau",
    "operator": "Marché couvert",
    "shop": "seafood"
  }
},
{
  "type": "node",
  "id": 6513346252,
  "lat": 46.1074939,
  "lon": -0.7509496,
  "tags": {
    "addr:city": "Surgères",
    "addr:postcode": "17700",
    "addr:street": "Allée du Marché",
    "description": "Commerce de détail alimentaire. Commerce acceptant les contenants réutilisables. ",
    "name": "LEFEBVRE Gilbert et Sylvie",
    "operator": "Marché couvert",
    "shop": "convenience"
  }
},
{
  "type": "node",
  "id": 6513346253,
  "lat": 46.1074828,
  "lon": -0.7509604,
  "tags": {
    "addr:city": "Surgères",
    "addr:postcode": "17700",
    "addr:street": "Allée du Marché",
    "description": "Commerce acceptant les contenants réutilisables. ",
    "name": "REMBERT Thierry",
    "operator": "Marché couvert",
    "shop": "greengrocer"
  }
},
{
  "type": "node",
  "id": 6513346254,
  "lat": 46.1074530,
  "lon": -0.7508799,
  "tags": {
    "addr:city": "Surgères",
    "addr:postcode": "17700",
    "addr:street": "Allée du Marché",
    "description": "Commerce acceptant les contenants réutilisables. ",
    "name": "La Marennine - JLG 17",
    "operator": "Marché couvert",
    "shop": "seafood"
  }
},
{
  "type": "node",
  "id": 6513346255,
  "lat": 46.1074679,
  "lon": -0.7509845,
  "tags": {
    "addr:city": "Surgères",
    "addr:postcode": "17700",
    "addr:street": "Allée du Marché",
    "description": "Ostréiculteur. Commerce acceptant les contenants réutilisables. ",
    "name": "MOREAU Patrick",
    "operator": "Marché couvert",
    "shop": "seafood"
  }
},
{
  "type": "node",
  "id": 6513346256,
  "lat": 46.1074753,
  "lon": -0.7509550,
  "tags": {
    "addr:city": "Surgères",
    "addr:postcode": "17700",
    "addr:street": "Allée du Marché",
    "description": "Commerce acceptant les contenants réutilisables. ",
    "name": "Couleur Marché - EURL VD",
    "operator": "Marché couvert",
    "shop": "greengrocer"
  }
},
{
  "type": "node",
  "id": 6513346257,
  "lat": 46.1074586,
  "lon": -0.7509577,
  "tags": {
    "addr:city": "Surgères",
    "addr:postcode": "17700",
    "addr:street": "Allée du Marché",
    "description": "Commerce acceptant les contenants réutilisables. ",
    "name": "SARL du Bois du Pan",
    "operator": "Marché couvert",
    "shop": "butcher"
  }
},
{
  "type": "node",
  "id": 6513346258,
  "lat": 46.1074400,
  "lon": -0.7509175,
  "tags": {
    "addr:city": "Surgères",
    "addr:postcode": "17700",
    "addr:street": "Allée du Marché",
    "description": "Commerce acceptant les contenants réutilisables.",
    "name": "SARL Aux Portes du Marais",
    "operator": "Marché couvert",
    "shop": "greengrocer"
  }
},
{
  "type": "node",
  "id": 6517960034,
  "lat": 46.2248050,
  "lon": -1.0356688,
  "tags": {
    "addr:city": "Saint-Ouen-d'Aunis",
    "addr:housenumber": "5",
    "addr:postcode": "17230",
    "addr:street": "Place de la Libération",
    "description": "Commerce acceptant les contenants réutilisables",
    "name": "Au Fournil de Saint-Ouen",
    "shop": "bakery"
  }
},
{
  "type": "node",
  "id": 6518133176,
  "lat": 46.2159584,
  "lon": -0.8874715,
  "tags": {
    "addr:city": "Saint-Sauveur-d'Aunis",
    "addr:housenumber": "26",
    "addr:postcode": "17540",
    "addr:street": "Rue de Ligoure",
    "description": "Commerçant acceptant les contenants réutilisables. ",
    "name": "Blanchard Sébastien",
    "shop": "bakery"
  }
},
{
  "type": "node",
  "id": 6518485829,
  "lat": 45.8892335,
  "lon": -0.5213871,
  "tags": {
    "addr:city": "Asnières-la-Giraud",
    "addr:housenumber": "12",
    "addr:postcode": "17400",
    "addr:street": "Avenue de Saint-Jean d'Angély",
    "description": "Commerce acceptant les contenants réutilisables. ",
    "name": "La Daugenette",
    "shop": "bakery"
  }
},
{
  "type": "node",
  "id": 6518487671,
  "lat": 46.0473497,
  "lon": -0.5111722,
  "tags": {
    "addr:city": "Loulay",
    "addr:housenumber": "22",
    "addr:postcode": "17330",
    "addr:street": "Place du Général de Gaulle",
    "description": "Boucherie - Charcuterie - Traiteur acceptant les contenants réutilisables. ",
    "name": "Chez Tatianna et Nicolas",
    "shop": "butcher"
  }
},
{
  "type": "node",
  "id": 6518497300,
  "lat": 45.8673683,
  "lon": -0.3205435,
  "tags": {
    "addr:city": "Matha",
    "addr:housenumber": "9",
    "addr:postcode": "17160",
    "addr:street": "Place Sanson",
    "description": "Commerce acceptant les contenants réutilisables. ",
    "name": "Le Fournil du Château",
    "shop": "bakery"
  }
},
{
  "type": "node",
  "id": 6518498771,
  "lat": 46.0209125,
  "lon": -0.3465902,
  "tags": {
    "addr:city": "Aulnay",
    "addr:housenumber": "17",
    "addr:postcode": "17470",
    "addr:street": "Place Aristide Briand",
    "description": "Commerce acceptant les contenants réutilisables. ",
    "name": "O'Donjon des Gourmets",
    "shop": "bakery"
  }
},
{
  "type": "node",
  "id": 6518536686,
  "lat": 45.8673423,
  "lon": -0.3204703,
  "tags": {
    "addr:city": "Matha",
    "addr:housenumber": "10",
    "addr:postcode": "17160",
    "addr:street": "Place Sanson",
    "description": "Commerce acceptant les contenants réutilisables. ",
    "name": "Chartier Marcel",
    "shop": "butcher"
  }
},
{
  "type": "node",
  "id": 6524278073,
  "lat": 45.8675392,
  "lon": -0.3210896,
  "tags": {
    "addr:city": "Matha",
    "addr:housenumber": "12",
    "addr:postcode": "17160",
    "addr:street": "Rue de Saint-Jean d'Angély",
    "description": "Commerce acceptant les contenants réutilisables. ",
    "name": "Relais des Gourmandises",
    "shop": "bakery"
  }
},
{
  "type": "node",
  "id": 6524314669,
  "lat": 46.2254126,
  "lon": -0.9317539,
  "tags": {
    "addr:city": "Nuaillé-d'Aunis",
    "addr:housenumber": "1",
    "addr:postcode": "17540",
    "addr:street": "Place du Four",
    "description": "Commerce acceptant les contenants réutilisables. ",
    "name": "Boulangerie Martineau",
    "shop": "bakery"
  }
},
{
  "type": "node",
  "id": 6524323417,
  "lat": 46.2169892,
  "lon": -0.8870839,
  "tags": {
    "addr:city": "Saint-Sauveur-d'Aunis",
    "addr:housenumber": "12",
    "addr:postcode": "17540",
    "addr:street": "Rue de Ligoure",
    "description": "Commerce acceptant les contenants réutilisables",
    "name": "La Boucherie de Saint-Sauveur",
    "operator": "SAS Les Louchebemes",
    "shop": "butcher"
  }
},
{
  "type": "node",
  "id": 6524561218,
  "lat": 46.2038148,
  "lon": -0.8170000,
  "tags": {
    "addr:city": "Benon",
    "addr:housenumber": "14",
    "addr:postcode": "17170",
    "addr:street": "Rue du Château",
    "description": "Commerce acceptant les contenants réutilisables. ",
    "name": "PROXI Les Halles de Benon",
    "shop": "convenience"
  }
},
{
  "type": "node",
  "id": 6524568122,
  "lat": 45.7446187,
  "lon": -0.6310117,
  "tags": {
    "addr:city": "Saintes",
    "addr:housenumber": "23",
    "addr:postcode": "17100",
    "addr:street": "Rue Saint-Pierre",
    "craft": "caterer",
    "description": "Commerce acceptant les contenants réutilisables. ",
    "name": "Saveurs Orientales"
  }
},
{
  "type": "node",
  "id": 6524568123,
  "lat": 45.7445906,
  "lon": -0.6310332,
  "tags": {
    "addr:city": "Saintes",
    "addr:housenumber": "23",
    "addr:postcode": "17100",
    "addr:street": "Rue Saint-Pierre",
    "description": "Commerce acceptant les contenants réutilisables. ",
    "name": "Stand Fermier",
    "shop": "greengrocer"
  }
},
{
  "type": "node",
  "id": 6524588998,
  "lat": 46.3004041,
  "lon": -0.8076844,
  "tags": {
    "addr:city": "La Ronde",
    "addr:housenumber": "12",
    "addr:postcode": "17170",
    "addr:street": "Rue Texier de Norbecq",
    "description": "Boucherie - Charcuterie, acceptant les contenants réutilisables.",
    "name": "Boucherie LV",
    "shop": "butcher"
  }
},
{
  "type": "node",
  "id": 6524590575,
  "lat": 45.7445606,
  "lon": -0.6310493,
  "tags": {
    "addr:city": "Saintes",
    "addr:housenumber": "23",
    "addr:postcode": "17100",
    "addr:street": "Rue Saint-Pierre",
    "description": "Commerce acceptant les contenants réutilisables. ",
    "name": "Fromagerie David",
    "shop": "cheese"
  }
},
{
  "type": "node",
  "id": 6524594676,
  "lat": 45.7445419,
  "lon": -0.6310653,
  "tags": {
    "addr:city": "Saintes",
    "addr:housenumber": "23",
    "addr:postcode": "17100",
    "addr:street": "Rue Saint-Pierre",
    "description": "Commerce acceptant les contenants réutilisables. ",
    "name": "Noëlle au Pays des Fromages",
    "shop": "cheese"
  }
},
{
  "type": "node",
  "id": 6524594677,
  "lat": 45.7446804,
  "lon": -0.6308749,
  "tags": {
    "addr:city": "Saintes",
    "addr:housenumber": "23",
    "addr:postcode": "17100",
    "addr:street": "Rue Saint-Pierre",
    "description": "Commerce acceptant les contenants réutilisables. ",
    "name": "Boulangerie - l'Authentique",
    "shop": "bakery"
  }
},
{
  "type": "node",
  "id": 6524613499,
  "lat": 45.7446673,
  "lon": -0.6309876,
  "tags": {
    "addr:city": "Saintes",
    "addr:housenumber": "23",
    "addr:postcode": "17100",
    "addr:street": "Rue Saint-Pierre",
    "description": "Commerce acceptant les contenants réutilisables. ",
    "name": "EARL Elevage Boyer",
    "shop": "butcher"
  }
},
{
  "type": "node",
  "id": 6524633159,
  "lat": 45.7446748,
  "lon": -0.6307864,
  "tags": {
    "addr:city": "Saintes",
    "addr:housenumber": "23",
    "addr:postcode": "17100",
    "addr:street": "Rue Saint-Pierre",
    "description": "Commerce acceptant les contenants réutilisables. ",
    "name": "A. Ravelaud",
    "shop": "butcher"
  }
},
{
  "type": "node",
  "id": 6524636043,
  "lat": 45.7446056,
  "lon": -0.6307006,
  "tags": {
    "addr:city": "Saintes",
    "addr:housenumber": "23",
    "addr:postcode": "17100",
    "addr:street": "Rue Saint-Pierre",
    "description": "Commerce acceptant les contenants réutilisables. ",
    "name": "Coeur de Laitue",
    "shop": "greengrocer"
  }
},
{
  "type": "node",
  "id": 6524636044,
  "lat": 45.7445775,
  "lon": -0.6307220,
  "tags": {
    "addr:city": "Saintes",
    "addr:housenumber": "23",
    "addr:postcode": "17100",
    "addr:street": "Rue Saint-Pierre",
    "description": "Biscuiterie acceptant les contenants réutilisables. ",
    "name": "Aux Macarons d'Antan",
    "shop": "pastry"
  }
},
{
  "type": "node",
  "id": 6524645127,
  "lat": 45.7445550,
  "lon": -0.6307274,
  "tags": {
    "addr:city": "Saintes",
    "addr:housenumber": "23",
    "addr:postcode": "17100",
    "addr:street": "Rue Saint-Pierre",
    "description": "Commerce acceptant les contenants réutilisables. ",
    "name": "Primeur Vinet",
    "shop": "greengrocer"
  }
},
{
  "type": "node",
  "id": 6524645278,
  "lat": 45.7446823,
  "lon": -0.6308266,
  "tags": {
    "addr:city": "Saintes",
    "addr:housenumber": "23",
    "addr:postcode": "17100",
    "addr:street": "Rue Saint-Pierre",
    "description": "Commerce acceptant les contenants réutilisables. ",
    "name": "Fromagerie Fine Moreau",
    "shop": "cheese"
  }
},
{
  "type": "node",
  "id": 6524650256,
  "lat": 45.7330153,
  "lon": -0.6436318,
  "tags": {
    "addr:city": "Saintes",
    "addr:housenumber": "6",
    "addr:postcode": "17100",
    "addr:street": "Avenue de Bellevue",
    "craft": "caterer",
    "description": "Commerce acceptant les contenants réutilisables. ",
    "name": "Saveurs Orientales"
  }
},
{
  "type": "node",
  "id": 6524671419,
  "lat": 45.7496520,
  "lon": -0.6458168,
  "tags": {
    "addr:city": "Saintes",
    "addr:housenumber": "30",
    "addr:postcode": "17100",
    "addr:street": "Cours du Maréchal Leclerc",
    "description": "Commerce acceptant les contenants réutilisables. ",
    "name": "Boulangerie l'Authentique",
    "shop": "bakery"
  }
},
{
  "type": "node",
  "id": 6616670133,
  "lat": 45.5690601,
  "lon": -0.6766306,
  "tags": {
    "addr:city": "Gémozac",
    "addr:housenumber": "7",
    "addr:postcode": "17260",
    "addr:street": "Rue de la Libération",
    "description": "Commerçant acceptant les contenants réutilisables. ",
    "name": "GASSIEN Denis",
    "shop": "butcher"
  }
},
{
  "type": "node",
  "id": 6616993686,
  "lat": 45.5692746,
  "lon": -0.6786880,
  "tags": {
    "addr:city": "Gémozac",
    "addr:housenumber": "19",
    "addr:postcode": "17260",
    "addr:street": "Rue du Général Leclerc",
    "description": "Commerçant acceptant les contenants réutilisables. ",
    "name": "SARL La Frangipane",
    "shop": "bakery"
  }
},
{
  "type": "node",
  "id": 6617008541,
  "lat": 45.5973733,
  "lon": -0.7086678,
  "tags": {
    "addr:city": "Cravans",
    "addr:housenumber": "41",
    "addr:postcode": "17260",
    "addr:street": "Rue du Jardin Public",
    "description": "Commerçant acceptant les contenants réutilisables. ",
    "name": "SARL La Boulangerie Cravanaise",
    "shop": "bakery"
  }
},
{
  "type": "node",
  "id": 6617018498,
  "lat": 45.6510225,
  "lon": -0.8117071,
  "tags": {
    "addr:city": "Meursac",
    "addr:housenumber": "23",
    "addr:postcode": "17120",
    "addr:street": "Grande Rue",
    "description": "Commerçant acceptant les contenants réutilisables. ",
    "name": "FLAUSSE Pierre Jean",
    "shop": "bakery"
  }
},
{
  "type": "node",
  "id": 6617024251,
  "lat": 45.6499103,
  "lon": -0.8084434,
  "tags": {
    "addr:city": "Meursac",
    "addr:housenumber": "8",
    "addr:postcode": "17120",
    "addr:street": "Rue Principale",
    "description": "Commerçant acceptant les contenants réutilisables. ",
    "name": "SARL Freymann",
    "shop": "butcher"
  }
},
{
  "type": "node",
  "id": 6617045635,
  "lat": 45.6497724,
  "lon": -0.8093620,
  "tags": {
    "addr:city": "Meursac",
    "addr:housenumber": "7",
    "addr:postcode": "17120",
    "addr:street": "Rue des Écoles",
    "description": "Commerçant acceptant les contenants réutilisables. ",
    "name": "SUDRE Virginie",
    "shop": "convenience"
  }
},
{
  "type": "node",
  "id": 6618409735,
  "lat": 45.6002521,
  "lon": -0.7484963,
  "tags": {
    "addr:city": "Saint-André-de-Lidon",
    "addr:housenumber": "3",
    "addr:postcode": "17260",
    "addr:street": "Rue de la Seudre",
    "description": "Commerçant acceptant les contenants réutilisables. ",
    "name": "Epicerie Vival",
    "operator": "LEGRIS Frédéric - ADAM Cédric",
    "shop": "convenience"
  }
},
{
  "type": "node",
  "id": 6618422223,
  "lat": 45.6001718,
  "lon": -0.7485576,
  "tags": {
    "addr:city": "Saint-André-de-Lidon",
    "addr:housenumber": "1",
    "addr:postcode": "17260",
    "addr:street": "Rue de la Seudre",
    "description": "Commerçant acceptant les contenants réutilisables. ",
    "name": "Boulangerie - Pâtisserie",
    "operator": "CHOLLET Cinda et Maximilien",
    "shop": "bakery"
  }
},
{
  "type": "node",
  "id": 6631196967,
  "lat": 45.8571920,
  "lon": -0.8310596,
  "tags": {
    "addr:city": "Beurlay",
    "addr:housenumber": "39 B",
    "addr:postcode": "17250",
    "addr:street": "Rue Maréchal Leclerc",
    "description": "Commerçant acceptant les contenants réutilisables. ",
    "name": "Pellon Eric",
    "shop": "bakery"
  }
},
{
  "type": "node",
  "id": 6631621300,
  "lat": 45.8295108,
  "lon": -0.8673192,
  "tags": {
    "addr:city": "Pont-l'Abbé-d'Arnoult",
    "addr:housenumber": "68",
    "addr:postcode": "17250",
    "addr:street": "Avenue André Malraux",
    "description": "Commerçant acceptant les contenants réutilisables. ",
    "name": "Chez Pellon",
    "shop": "bakery"
  }
},
{
  "type": "node",
  "id": 6752710768,
  "lat": 46.2138828,
  "lon": -0.9541477,
  "tags": {
    "addr:city": "Angliers",
    "addr:housenumber": "8",
    "addr:postcode": "17540",
    "addr:street": "rue des sables",
    "description": "Commerce acceptant les contenants réutilisables. ",
    "name": "Vival - Le Marché d'Hortense",
    "shop": "convenience"
  }
},
{
  "type": "node",
  "id": 6752784529,
  "lat": 46.3011629,
  "lon": -1.0961702,
  "tags": {
    "addr:city": "Charron",
    "addr:postcode": "17230",
    "addr:street": "Zone Commerciale les Morines",
    "description": "Commerce acceptant les contenants réutilisables. ",
    "name": "SARL Fleur de Blé",
    "shop": "bakery"
  }
},
{
  "type": "node",
  "id": 6752790714,
  "lat": 46.3013638,
  "lon": -1.0961533,
  "tags": {
    "addr:city": "Charron",
    "addr:postcode": "17230",
    "addr:street": "Zone Commerciale les Morines",
    "description": "Commerce acceptant les contenants réutilisables. ",
    "name": "Sodipral",
    "shop": "butcher"
  }
},
{
  "type": "way",
  "id": 72801802,
  "center": {
    "lat": 46.1073744,
    "lon": -0.7516876
  },
  "nodes": [
    864002783,
    864091601,
    864003229,
    864030313,
    864008082,
    864095433,
    864002783
  ],
  "tags": {
    "addr:city": "Surgères",
    "addr:housenumber": "73",
    "addr:postcode": "17700",
    "addr:street": "Rue Audry de Puyravault",
    "building": "yes",
    "bulk_purchase": "yes",
    "name": "Unis Vert Bio",
    "organic": "only",
    "shop": "convenience",
    "source": "extraction vectorielle v1 cadastre-dgi-fr source : Direction Générale des Impôts - Cadas. Mise à jour : 2010",
    "website": "http://www.unisvertbio.com/"
  }
},
{
  "type": "way",
  "id": 683048093,
  "center": {
    "lat": 46.1165522,
    "lon": -0.9334879
  },
  "nodes": [
    892386387,
    892254734,
    892260995,
    892238197,
    892259514,
    892225382,
    892219605,
    892251910,
    892386387
  ],
  "tags": {
    "addr:city": "Aigrefeuille-d'Aunis",
    "addr:housenumber": "18",
    "addr:postcode": "17290",
    "addr:street": "Place de la République",
    "building": "retail",
    "description": "Boulangerie",
    "name": "Aux milles délices",
    "shop": "bakery",
    "source": "extraction vectorielle v1 cadastre-dgi-fr source : Direction Générale des Impôts - Cadas. Mise à jour : 2010"
  }
}

  ]
}
